NORAD_CAT_ID,OBJECT_NAME,OBJECT_TYPE,EPOCH,MEAN_MOTION,ECCENTRICITY,INCLINATION,RA_OF_ASC_NODE,ARG_OF_PERICENTER,MEAN_ANOMALY,BSTAR,MEAN_MOTION_DOT,MEAN_MOTION_DDOT,TLE_LINE0,TLE_LINE1,TLE_LINE2,SEMIMAJOR_AXIS,PERIOD,APOGEE,PERIGEE,DECAYED
54787.0,STARLINK-5441,PAYLOAD,2023-12-19 14:01:20,15.08845844,0.00016,53.2174,85.03,72.931,287.1857,0.00010279,1.349e-05,0.0,0 STARLINK-5441,1 54787U 22175AF  23353.58426781  .00001349  00000-0  10279-3 0  9994,2 54787  53.2174  85.0300 0001600  72.9310 287.1857 15.08845844 57478,6917.863,95.437,540.834,538.621,0.0
54787.0,STARLINK-5441,PAYLOAD,2023-12-20 10:41:22,15.08833071,0.0001587,53.2187,81.1627,92.3284,267.789,-0.0001516,-2.699e-05,0.0,0 STARLINK-5441,1 54787U 22175AF  23354.44539715 -.00002699  00000-0 -15160-3 0  9997,2 54787  53.2187  81.1627 0001587  92.3284 267.7890 15.08833071 55446,6917.902,95.438,540.864,538.669,0.0
54787.0,STARLINK-5441,PAYLOAD,2023-12-20 12:16:45,15.08833181,0.0001561,53.2172,80.8707,79.32,280.7968,-0.00011642,-2.14e-05,0.0,0 STARLINK-5441,1 54787U 22175AF  23354.51163719 -.00002140  00000-0 -11642-3 0  9994,2 54787  53.2172  80.8707 0001561  79.3200 280.7968 15.08833181 57614,6917.901,95.438,540.846,538.686,0.0
54787.0,STARLINK-5441,PAYLOAD,2023-12-21 12:07:32,15.08849049,0.0001612,53.2179,76.4063,79.1741,280.9432,0.00024516,3.617e-05,0.0,0 STARLINK-5441,1 54787U 22175AF  23355.50523506  .00003617  00000-0  24516-3 0  9990,2 54787  53.2179  76.4063 0001612  79.1741 280.9432 15.08849049 55607,6917.853,95.437,540.833,538.603,0.0
54787.0,STARLINK-5441,PAYLOAD,2023-12-22 11:58:19,15.08843189,0.0001762,53.2179,71.9424,103.3532,256.7656,0.00013932,1.93e-05,0.0,0 STARLINK-5441,1 54787U 22175AF  23356.49883756  .00001930  00000-0  13932-3 0  9991,2 54787  53.2179  71.9424 0001762 103.3532 256.7656 15.08843189 55756,6917.871,95.437,540.955,538.517,0.0
54787.0,STARLINK-5441,PAYLOAD,2023-12-23 11:49:06,15.08843822,0.0001765,53.2184,67.4878,106.4519,253.6667,1.3529e-05,-7.3e-07,0.0,0 STARLINK-5441,1 54787U 22175AF  23357.49243734 -.00000073  00000-0  13529-4 0  9999,2 54787  53.2184  67.4878 0001765 106.4519 253.6667 15.08843822 58066,6917.869,95.437,540.955,538.513,0.0
54787.0,STARLINK-5441,PAYLOAD,2023-12-24 13:15:16,15.08846177,0.0001475,53.218,62.7302,89.0347,271.0814,0.00012395,1.686e-05,0.0,0 STARLINK-5441,1 54787U 22175AF  23358.55227710  .00001686  00000-0  12395-3 0  9992,2 54787  53.2180  62.7302 0001475  89.0347 271.0814 15.08846177 58227,6917.862,95.437,540.747,538.706,0.0
54787.0,STARLINK-5441,PAYLOAD,2023-12-25 11:30:40,15.08846791,0.0001776,53.2188,58.568,78.9432,281.176,0.0001694,2.409e-05,0.0,0 STARLINK-5441,1 54787U 22175AF  23359.47963903  .00002409  00000-0  16940-3 0  9999,2 54787  53.2188  58.5680 0001776  78.9432 281.1760 15.08846791 56203,6917.86,95.437,540.953,538.496,0.0
54787.0,STARLINK-5441,PAYLOAD,2023-12-26 11:21:28,15.08837403,0.0001565,53.2184,54.1055,80.5335,279.5834,6.1834e-06,-1.9e-06,0.0,0 STARLINK-5441,1 54787U 22175AF  23360.47324473 -.00000190  00000-0  61834-5 0  9994,2 54787  53.2184  54.1055 0001565  80.5335 279.5834 15.08837403 56353,6917.888,95.438,540.836,538.671,0.0
54787.0,STARLINK-5441,PAYLOAD,2023-12-26 12:56:51,15.08840834,0.00016,53.2185,53.8062,85.6944,274.4231,5.9983e-05,6.67e-06,0.0,0 STARLINK-5441,1 54787U 22175AF  23360.53948463  .00000667  00000-0  59983-4 0  9991,2 54787  53.2185  53.8062 0001600  85.6944 274.4231 15.08840834 58528,6917.878,95.438,540.85,538.636,0.0
54787.0,STARLINK-5441,PAYLOAD,2023-12-27 11:12:15,15.08845708,0.0001733,53.2181,49.6439,74.4005,285.7179,9.1909e-05,1.175e-05,0.0,0 STARLINK-5441,1 54787U 22175AF  23361.46684207  .00001175  00000-0  91909-4 0  9996,2 54787  53.2181  49.6439 0001733  74.4005 285.7179 15.08845708 58662,6917.863,95.437,540.927,538.529,0.0
54787.0,STARLINK-5441,PAYLOAD,2023-12-28 09:27:39,15.08841906,0.0001867,53.2183,45.4833,70.4834,289.636,0.00012413,1.688e-05,0.0,0 STARLINK-5441,1 54787U 22175AF  23362.39420798  .00001688  00000-0  12413-3 0  9993,2 54787  53.2183  45.4833 0001867  70.4834 289.6360 15.08841906 56647,6917.875,95.437,541.031,538.448,0.0
54787.0,STARLINK-5441,PAYLOAD,2023-12-28 12:38:25,15.08843304,0.0001933,53.2189,44.8829,71.5191,288.6011,0.00016158,2.285e-05,0.0,0 STARLINK-5441,1 54787U 22175AF  23362.52668705  .00002285  00000-0  16158-3 0  9994,2 54787  53.2189  44.8829 0001933  71.5191 288.6011 15.08843304 58821,6917.87,95.437,541.073,538.398,0.0
54787.0,STARLINK-5441,PAYLOAD,2023-12-29 09:18:26,15.08843461,0.0001637,53.2183,41.0133,82.2485,277.8693,1.9844e-06,-2.56e-06,0.0,0 STARLINK-5441,1 54787U 22175AF  23363.38780783 -.00000256  00000-0  19844-5 0  9994,2 54787  53.2183  41.0133 0001637  82.2485 277.8693 15.08843461 58952,6917.87,95.437,540.867,538.602,0.0
54787.0,STARLINK-5441,PAYLOAD,2023-12-30 02:47:40,15.08839437,0.0001839,53.2187,37.7421,110.5584,249.5606,8.6064e-05,1.082e-05,0.0,0 STARLINK-5441,1 54787U 22175AF  23364.11644555  .00001082  00000-0  86064-4 0  9996,2 54787  53.2187  37.7421 0001839 110.5584 249.5606 15.08839437 56908,6917.882,95.438,541.019,538.475,0.0
54787.0,STARLINK-5441,PAYLOAD,2023-12-30 09:09:12,15.08852823,0.0001709,53.2191,36.5599,101.1798,258.9386,7.683e-05,9.35e-06,0.0,0 STARLINK-5441,1 54787U 22175AF  23364.38139918  .00000935  00000-0  76830-4 0  9993,2 54787  53.2191  36.5599 0001709 101.1798 258.9386 15.08852823 56942,6917.841,95.437,540.888,538.524,0.0
54787.0,STARLINK-5441,PAYLOAD,2023-12-31 02:38:28,15.08832842,0.0001813,53.2185,33.2916,103.7125,256.4069,5.1949e-05,5.39e-06,0.0,0 STARLINK-5441,1 54787U 22175AF  23365.11005414  .00000539  00000-0  51949-4 0  9992,2 54787  53.2185  33.2916 0001813 103.7125 256.4069 15.08832842 57053,6917.902,95.438,541.021,538.513,0.0
54787.0,STARLINK-5441,PAYLOAD,2023-12-31 12:10:47,15.08830046,0.0001731,53.2184,31.5061,106.5489,253.5694,2.2215e-05,6.5e-07,0.0,0 STARLINK-5441,1 54787U 22175AF  23365.50749963  .00000065  00000-0  22215-4 0  9997,2 54787  53.2184  31.5061 0001731 106.5489 253.5694 15.08830046 59279,6917.911,95.438,540.973,538.578,0.0
54787.0,STARLINK-5441,PAYLOAD,2024-01-01 10:26:10,15.08847766,0.0001589,53.2173,27.3444,98.8626,261.2546,0.00016321,2.311e-05,0.0,0 STARLINK-5441,1 54787U 22175AF  24001.43484838  .00002311  00000-0  16321-3 0  9990,2 54787  53.2173  27.3444 0001589  98.8626 261.2546 15.08847766 57257,6917.857,95.437,540.821,538.622,0.0
54787.0,STARLINK-5441,PAYLOAD,2024-01-02 08:41:34,15.08839713,0.0001306,53.2168,23.1825,115.871,244.2417,-8.1441e-05,-1.584e-05,0.0,0 STARLINK-5441,1 54787U 22175AF  24002.36220272 -.00001584  00000-0 -81441-4 0  9992,2 54787  53.2168  23.1825 0001306 115.8710 244.2417 15.08839713 57395,6917.881,95.438,540.65,538.843,0.0
54787.0,STARLINK-5441,PAYLOAD,2024-01-03 10:07:44,15.08861641,0.000133,53.2173,18.4154,117.4034,242.7094,0.00036202,5.482e-05,0.0,0 STARLINK-5441,1 54787U 22175AF  24003.42203813  .00005482  00000-0  36202-3 0  9995,2 54787  53.2173  18.4154 0001330 117.4034 242.7094 15.08861641 57554,6917.814,95.436,540.599,538.759,0.0
54787.0,STARLINK-5441,PAYLOAD,2024-01-04 08:23:08,15.0882845,0.0001684,53.2175,14.2632,54.5667,305.5483,-0.00012175,-2.225e-05,0.0,0 STARLINK-5441,1 54787U 22175AF  24004.34940413 -.00002225  00000-0 -12175-3 0  9998,2 54787  53.2175  14.2632 0001684  54.5667 305.5483 15.08828450 57692,6917.916,95.438,540.946,538.616,0.0
54787.0,STARLINK-5441,PAYLOAD,2024-01-05 09:49:19,15.08835331,0.0001387,53.2174,9.5013,79.5307,280.5841,5.2951e-05,5.55e-06,0.0,0 STARLINK-5441,1 54787U 22175AF  24005.40925046  .00000555  00000-0  52951-4 0  9990,2 54787  53.2174   9.5013 0001387  79.5307 280.5841 15.08835331 57853,6917.895,95.438,540.719,538.8,0.0
54787.0,STARLINK-5441,PAYLOAD,2024-01-06 06:29:20,15.08839483,0.0001603,53.2177,5.636,83.0366,277.0809,0.0004189,6.385e-05,0.0,0 STARLINK-5441,1 54787U 22175AF  24006.27037473  .00006385  00000-0  41890-3 0  9990,2 54787  53.2177   5.6360 0001603  83.0366 277.0809 15.08839483 60147,6917.882,95.438,540.856,538.638,0.0
54787.0,STARLINK-5441,PAYLOAD,2024-01-07 04:44:44,15.08837279,0.0001553,53.2174,1.4665,89.53,270.587,0.00013594,1.876e-05,0.0,0 STARLINK-5441,1 54787U 22175AF  24007.19773732  .00001876  00000-0  13594-3 0  9997,2 54787  53.2174   1.4665 0001553  89.5300 270.5870 15.08837279 58121,6917.889,95.438,540.828,538.679,0.0
54787.0,STARLINK-5441,PAYLOAD,2024-01-07 09:30:54,15.08833852,0.0001514,53.2175,0.578,84.3035,275.813,0.00022411,3.28e-05,0.0,0 STARLINK-5441,1 54787U 22175AF  24007.39645976  .00003280  00000-0  22411-3 0  9996,2 54787  53.2175   0.5780 0001514  84.3035 275.8130 15.08833852 60319,6917.899,95.438,540.812,538.717,0.0
54787.0,STARLINK-5441,PAYLOAD,2024-01-08 09:21:42,15.0881556,0.0001849,53.2175,356.117,92.0652,268.0552,0.00087297,0.00013623,0.0,0 STARLINK-5441,1 54787U 22175AF  24008.39007175  .00013623  00000-0  87297-3 0  9995,2 54787  53.2175 356.1170 0001849  92.0652 268.0552 15.08815560 58308,6917.955,95.439,541.099,538.541,0.0
54787.0,STARLINK-5441,PAYLOAD,2024-01-09 04:26:18,15.08842069,0.0001609,53.2173,352.5464,99.0186,261.0988,0.00011268,1.506e-05,0.0,0 STARLINK-5441,1 54787U 22175AF  24009.18493592  .00001506  00000-0  11268-3 0  9997,2 54787  53.2173 352.5464 0001609  99.0186 261.0988 15.08842069 58428,6917.874,95.437,540.852,538.626,0.0
54787.0,STARLINK-5441,PAYLOAD,2024-01-09 07:37:04,15.08846009,0.0001617,53.2176,351.9514,94.686,265.4316,0.00016405,2.324e-05,0.0,0 STARLINK-5441,1 54787U 22175AF  24009.31741418  .00002324  00000-0  16405-3 0  9992,2 54787  53.2176 351.9514 0001617  94.6860 265.4316 15.08846009 60603,6917.862,95.437,540.846,538.608,0.0
54787.0,STARLINK-5441,PAYLOAD,2024-01-10 05:52:28,15.08840807,0.0001766,53.2188,347.7929,81.5232,278.596,2.7839e-05,1.55e-06,0.0,0 STARLINK-5441,1 54787U 22175AF  24010.24477993  .00000155  00000-0  27839-4 0  9994,2 54787  53.2188 347.7929 0001766  81.5232 278.5960 15.08840807 58586,6917.878,95.438,540.965,538.521,0.0
